{"type":"FeatureCollection","features":[
{"type":"Feature","geometry":{"type":"LineString","coordinates":[[19.0221987,47.5198434],[19.0222563,47.5198632],[19.0222884,47.5198857],[19.0226907,47.5201898],[19.022978,47.5204765],[19.0231423,47.520603],[19.0232193,47.5206386],[19.0233348,47.5206694]]},"properties":{"highway":"residential","lit":"yes","maxspeed":"50","name":"Vérhalom utca","surface":"asphalt"}},
{"type":"Feature","geometry":{"type":"LineString","coordinates":[[19.0301647,47.520291],[19.0302793,47.5202797],[19.0304064,47.520236],[19.0304389,47.5202214],[19.0305672,47.5201636],[19.0322776,47.519306],[19.0332618,47.5187827],[19.0333698,47.5187253]]},"properties":{"highway":"residential","lit":"yes","maxspeed":"50","maxweight":"7.5","name":"Vérhalom utca","sidewalk":"both","source:maxspeed":"HU:urban","surface":"asphalt"}},
{"type":"Feature","geometry":{"type":"LineString","coordinates":[[19.028865,47.5201353],[19.0289262,47.5201338],[19.0290959,47.5201377],[19.0293726,47.5201485],[19.0298166,47.5202208],[19.0301647,47.520291]]},"properties":{"highway":"residential","lit":"yes","name":"Vérhalom utca","surface":"asphalt"}},
{"type":"Feature","geometry":{"type":"LineString","coordinates":[[19.028865,47.5201353],[19.0275883,47.5203559],[19.027107,47.5204367],[19.0268587,47.520425],[19.0265932,47.5203993],[19.0263186,47.5203993],[19.0259924,47.5204398],[19.0255563,47.5205446],[19.0250689,47.5206655]]},"properties":{"highway":"tertiary","lanes":"2","lit":"yes","maxspeed":"50","name":"Vérhalom utca","sidewalk":"both","source:maxspeed":"HU:urban","surface":"asphalt"}},
{"type":"Feature","geometry":{"type":"LineString","coordinates":[[19.033729,47.5168953],[19.0332771,47.516839],[19.033165,47.5168527]]},"properties":{"highway":"residential","lit":"yes","name":"Vérhalom utca","surface":"asphalt"}},
{"type":"Feature","geometry":{"type":"LineString","coordinates":[[19.023536,47.5207851],[19.0234364,47.5207214],[19.0233348,47.5206694]]},"properties":{"highway":"residential","lanes":"1","lit":"yes","maxspeed":"50","name":"Vérhalom utca","oneway":"yes","surface":"asphalt"}},
{"type":"Feature","geometry":{"type":"LineString","coordinates":[[19.0333698,47.5187253],[19.0335013,47.5186393],[19.0338582,47.5184058],[19.0345328,47.5179645],[19.0346013,47.5179197],[19.0346319,47.517252],[19.0346288,47.5170926],[19.0346043,47.5170621],[19.0345727,47.5170358],[19.0345178,47.5170251],[19.0344635,47.5170293],[19.0341242,47.517066],[19.0340921,47.5170692],[19.0340694,47.5170636],[19.0340524,47.5170516],[19.0339433,47.5169551],[19.0339121,47.5169253]]},"properties":{"cycleway:both":"no","highway":"residential","lane_markings":"no","lit":"yes","maxspeed":"50","name":"Vérhalom utca","sidewalk":"right","source:maxspeed":"HU:urban","surface":"asphalt"}},
{"type":"Feature","geometry":{"type":"LineString","coordinates":[[19.0339121,47.5169253],[19.033729,47.5168953]]},"properties":{"highway":"residential","lit":"yes","name":"Vérhalom utca","sidewalk":"both","surface":"asphalt"}}
]}

